HELIOS 1B               
1 25977U 99064A   26092.32098524  .00002476  00000+0  27759-3 0  9991
2 25977  98.1674 355.2566 0001613  45.7938 314.3409 14.87792160688771
TERRA                   
1 25994U 99068A   26092.27506426  .00000657  00000+0  14279-3 0  9995
2 25994  97.9543 144.8030 0003654 102.9377 321.6839 14.61040692398527
SL-16 R/B               
1 26070U 00006B   26092.32741406  .00000202  00000+0  12679-3 0  9998
2 26070  71.0035  48.1313 0015384 152.7892 207.4040 14.15830216351904
TITAN 4B R/B            
1 26474U 00047B   26092.28264097  .00004928  00000+0  30688-3 0  9991
2 26474  67.9907 334.1596 0040117   7.6994 352.4762 15.09782770396476
ENVISAT                 
1 27386U 02009A   26092.33294837  .00000185  00000+0  73743-4 0  9996
2 27386  98.3769  45.3731 0001209  82.3136  35.0734 14.39045512262576
IDEFIX & ARIANE 42P R/B 
1 27422U 02021B   26092.26851593  .00000392  00000+0  16546-3 0  9998
2 27422  98.5898  30.5968 0012810 115.3367 244.9144 14.31042674247390
AQUA                    
1 27424U 02022A   26092.30475891  .00001488  00000+0  30631-3 0  9997
2 27424  98.4215  60.1071 0001307 116.3371 349.5399 14.62033293272183
CZ-4B R/B               
1 27432U 02024C   26092.13031441  .00000060  00000+0  54022-4 0  9994
2 27432  98.8786 145.4135 0049343 317.3188  96.6752 14.14551841232559
MIDORI II (ADEOS-II)    
1 27597U 02056A   26092.32515424  .00000462  00000+0  19945-3 0  9990
2 27597  98.7810  50.9722 0000502  21.3905 338.7297 14.29303846213675
H-2A R/B                
1 27601U 02056E   26092.14608432  .00000364  00000+0  14167-3 0  9990
2 27601  98.3245  51.6245 0071431  91.6485 280.3323 14.33776953217471
CZ-4B R/B               
1 28059U 03049C   26091.97076451  .00000429  00000+0  10970-3 0  9991
2 28059  98.6895  87.7926 0048523 159.3872 200.9296 14.55041279189988
CZ-2C R/B               
1 28222U 04012C   26092.18886280  .00074917  00000+0  68494-3 0  9994
2 28222  97.7175 159.7530 0013594 217.1187 142.9134 15.67476463207959
SL-16 R/B               
1 28353U 04021B   26092.28718557  .00000367  00000+0  21561-3 0  9993
2 28353  71.0011 182.9728 0005253 340.3747  19.7172 14.14598090126178
CZ-4B R/B               
1 28415U 04035C   26092.33416415  .00011245  00000+0  39052-3 0  9992
2 28415  97.3455 126.2948 0030189 242.9987 116.8171 15.29486524183529
CZ-2C R/B               
1 28480U 04046B   26092.32574836  .00000241  00000+0  10385-3 0  9999
2 28480  98.1977   5.8370 0140639  85.0199 276.7021 14.27001228111873
ARIANE 5 R/B            
1 28499U 04049H   26092.21126764  .00001286  00000+0  14804-3 0  9993
2 28499  98.2660 261.5547 0082833 274.9307  84.2454 14.85311686149285
CZ-2D R/B               
1 28738U 05024B   26092.29623543  .00063445  00000+0  71388-3 0  9993
2 28738  97.3564 108.3444 0001822 300.0803  60.0274 15.62381263143469
